NORAD_CAT_ID,OBJECT_NAME,OBJECT_TYPE,EPOCH,MEAN_MOTION,ECCENTRICITY,INCLINATION,RA_OF_ASC_NODE,ARG_OF_PERICENTER,MEAN_ANOMALY,BSTAR,MEAN_MOTION_DOT,MEAN_MOTION_DDOT,TLE_LINE0,TLE_LINE1,TLE_LINE2,SEMIMAJOR_AXIS,PERIOD,APOGEE,PERIGEE,DECAYED
51868.0,STARLINK-3578,PAYLOAD,2022-08-25 14:00:01,15.08842543,0.000162,53.2173,49.6178,69.8853,69.914,-0.0013318,-0.00021423,0.0,0 STARLINK-3578,1 51868U 22022S   22237.58334491 -.00021423  00000-0 -13318-2 0  9991,2 51868  53.2173  49.6178 0001620  69.8853  69.9140 15.08842543  1307,6917.873000000001,95.437,540.8580000000002,538.617,0.0
51868.0,STARLINK-3578,PAYLOAD,2022-08-25 22:00:00,15.0880834,0.0001671,53.2173,48.1254,61.5937,89.8013,0.0031306999999999,0.00049847,0.0,0 STARLINK-3578,1 51868U 22022S   22237.91667824  .00049847  00000-0  31307-2 0  9993,2 51868  53.2173  48.1254 0001671  61.5937  89.8013 15.08808340  1301,6917.977,95.44,540.998,538.686,0.0
51868.0,STARLINK-3578,PAYLOAD,2022-08-26 14:00:01,15.08854252,0.0001603,53.2178,45.1312,70.0247,104.596,-0.0014578,-0.00023423,0.0,0 STARLINK-3578,1 51868U 22022S   22238.58335648 -.00023423  00000-0 -14578-2 0  9998,2 51868  53.2178  45.1312 0001603  70.0247 104.5960 15.08854252  1301,6917.837,95.437,540.811,538.5930000000002,0.0
51868.0,STARLINK-3578,PAYLOAD,2022-08-26 22:00:00,15.08820121,0.0001658,53.2176,43.6361,62.0544,124.1122,0.0030356,0.00048329,0.0,0 STARLINK-3578,1 51868U 22022S   22238.91667824  .00048329  00000-0  30356-2 0  9991,2 51868  53.2176  43.6361 0001658  62.0544 124.1122 15.08820121  1303,6917.941,95.439,540.953,538.659,0.0
51868.0,STARLINK-3578,PAYLOAD,2022-08-27 14:00:01,15.08866763,0.0001551,53.218,40.6422,70.4497,138.9094,-0.0015504,-0.00024896,0.0,0 STARLINK-3578,1 51868U 22022S   22239.58334491 -.00024896  00000-0 -15504-2 0  9999,2 51868  53.2180  40.6422 0001551  70.4497 138.9094 15.08866763  1308,6917.799,95.436,540.737,538.591,0.0
51868.0,STARLINK-3578,PAYLOAD,2022-08-27 22:00:00,15.08841383,0.0001546,53.2177,39.1468,61.9127,159.069,-0.00017886,-3.134e-05,0.0,0 STARLINK-3578,1 51868U 22022S   22239.91667824 -.00003134  00000-0 -17886-3 0  9993,2 51868  53.2177  39.1468 0001546  61.9127 159.0690 15.08841383 28391,6917.876,95.437,540.811,538.672,0.0
51868.0,STARLINK-3578,PAYLOAD,2022-08-28 14:00:01,15.08854038,0.0001418,53.2179,36.1532,69.5809,174.5839,-0.0013999,-0.00022507,0.0,0 STARLINK-3578,1 51868U 22022S   22240.58334491 -.00022507  00000-0 -13999-2 0  9994,2 51868  53.2179  36.1532 0001418  69.5809 174.5839 15.08854038  1301,6917.837,95.437,540.683,538.722,0.0
51868.0,STARLINK-3578,PAYLOAD,2022-08-28 22:00:00,15.08836876,0.0001496999999999,53.2175,34.6578,62.7755,192.989,0.00036,5.446e-05,0.0,0 STARLINK-3578,1 51868U 22022S   22240.91667824  .00005446  00000-0  36000-3 0  9990,2 51868  53.2175  34.6578 0001497  62.7755 192.9890 15.08836876  1303,6917.89,95.438,540.7909999999998,538.719,0.0
51868.0,STARLINK-3578,PAYLOAD,2022-08-29 06:00:02,15.08802036,0.000146,53.2176,33.1596,72.3222,195.1078,0.0017624,0.00027843,0.0,0 STARLINK-3578,1 51868U 22022S   22241.25002315  .00027843  00000-0  17624-2 0  9991,2 51868  53.2176  33.1596 0001460  72.3222 195.1078 15.08802036 28598,6917.996,95.44,540.871,538.851,0.0
51868.0,STARLINK-3578,PAYLOAD,2022-08-29 14:00:01,15.0883622,0.000153,53.2177,31.6644,71.5008,207.4257,-0.0014544,-0.00023358,0.0,0 STARLINK-3578,1 51868U 22022S   22241.58334491 -.00023358  00000-0 -14544-2 0  9997,2 51868  53.2177  31.6644 0001530  71.5008 207.4257 15.08836220  1305,6917.892,95.438,540.815,538.6990000000002,0.0
51868.0,STARLINK-3578,PAYLOAD,2022-08-29 22:00:00,15.08815628,0.0001557,53.2173,30.1689,64.5357,225.9698,0.0018425999999999,0.00029139,0.0,0 STARLINK-3578,1 51868U 22022S   22241.91667824  .00029139  00000-0  18426-2 0  9997,2 51868  53.2173  30.1689 0001557  64.5357 225.9698 15.08815628  1305,6917.955,95.439,540.8969999999998,538.743,0.0
51868.0,STARLINK-3578,PAYLOAD,2022-08-30 06:00:00,15.08807319,0.0001476999999999,53.2175,28.6709,72.9812,229.1087,0.0028154,0.00044764,0.0,0 STARLINK-3578,1 51868U 22022S   22242.25001157  .00044764  00000-0  28154-2 0  9996,2 51868  53.2175  28.6709 0001477  72.9812 229.1087 15.08807319 28745,6917.98,95.44,540.867,538.823,0.0
51868.0,STARLINK-3578,PAYLOAD,2022-08-30 14:00:01,15.08847976,0.0001558,53.2176,27.1756,70.5854,243.0756,-0.0015282,-0.00024532,0.0,0 STARLINK-3578,1 51868U 22022S   22242.58334491 -.00024532  00000-0 -15282-2 0  9993,2 51868  53.2176  27.1756 0001558  70.5854 243.0756 15.08847976  1306,6917.856,95.437,540.799,538.643,0.0
51868.0,STARLINK-3578,PAYLOAD,2022-08-30 22:00:00,15.08835724,0.0001567,53.2174,25.68,63.4076,261.8498,0.0013709,0.00021595,0.0,0 STARLINK-3578,1 51868U 22022S   22242.91667824  .00021595  00000-0  13709-2 0  9995,2 51868  53.2174  25.6800 0001567  63.4076 261.8498 15.08835724 28841,6917.893,95.438,540.842,538.674,0.0
51868.0,STARLINK-3578,PAYLOAD,2022-08-31 14:00:01,15.08857586,0.0001513,53.2178,22.6867,67.0492,281.4117,-0.0031672,-0.00050366,0.0,0 STARLINK-3578,1 51868U 22022S   22243.58334491 -.00050366  00000-0 -31672-2 0  9999,2 51868  53.2178  22.6867 0001513  67.0492 281.4117 15.08857586 28945,6917.8269999999975,95.436,540.738,538.645,0.0
51868.0,STARLINK-3578,PAYLOAD,2022-08-31 22:00:00,15.08827958,0.0001491,53.2177,21.191,59.8888,300.1611,0.0008888,0.00013881,0.0,0 STARLINK-3578,1 51868U 22022S   22243.91667824  .00013881  00000-0  88880-3 0  9998,2 51868  53.2177  21.1910 0001491  59.8888 300.1611 15.08827958  1309,6917.917,95.438,540.814,538.751,0.0
51868.0,STARLINK-3578,PAYLOAD,2022-09-01 06:00:00,15.08811411,0.0001391,53.2178,19.6889,68.719,302.9277,0.0034741,0.00055394,0.0,0 STARLINK-3578,1 51868U 22022S   22244.25001157  .00055394  00000-0  34741-2 0  9998,2 51868  53.2178  19.6889 0001391  68.7190 302.9277 15.08811411 29058,6917.968000000003,95.439,540.795,538.87,0.0
51868.0,STARLINK-3578,PAYLOAD,2022-09-01 14:00:01,15.08862245,0.0001505,53.2177,18.1881,63.341,319.9542,-0.0025375999999999,-0.00040472,0.0,0 STARLINK-3578,1 51868U 22022S   22244.58335648 -.00040472  00000-0 -25376-2 0  9996,2 51868  53.2177  18.1881 0001505  63.3410 319.9542 15.08862245  1308,6917.812,95.436,540.719,538.636,0.0
51868.0,STARLINK-3578,PAYLOAD,2022-09-01 22:00:00,15.0885223,0.0001528,53.2181,16.7019,58.4199,336.4078,0.00047179,7.231e-05,0.0,0 STARLINK-3578,1 51868U 22022S   22244.91667824  .00007231  00000-0  47179-3 0  9997,2 51868  53.2181  16.7019 0001528  58.4199 336.4078 15.08852230  1305,6917.843000000003,95.437,540.765,538.651,0.0
51868.0,STARLINK-3578,PAYLOAD,2022-09-02 14:00:01,15.08845278,0.0001443999999999,53.2185,13.7091,60.8524,357.19,-0.0013606,-0.0002188,0.0,0 STARLINK-3578,1 51868U 22022S   22245.58334491 -.00021880  00000-0 -13606-2 0  9997,2 51868  53.2185  13.7091 0001444  60.8524 357.1900 15.08845278 29254,6917.864000000001,95.437,540.7280000000002,538.73,0.0
51868.0,STARLINK-3578,PAYLOAD,2022-09-02 22:00:01,15.08844097,0.0001448,53.2184,12.2128,55.8361,13.8567,-0.00010803,-2.007e-05,0.0,0 STARLINK-3578,1 51868U 22022S   22245.91668981 -.00002007  00000-0 -10803-3 0  9995,2 51868  53.2184  12.2128 0001448  55.8361  13.8567 15.08844097  1304,6917.868,95.437,540.735,538.731,0.0
51868.0,STARLINK-3578,PAYLOAD,2022-09-03 08:00:01,15.08853438,0.000139,53.2188,10.341,67.8905,106.2396,-5.2643e-05,-1.126e-05,0.0,0 STARLINK-3578,1 51868U 22022S   22246.33334491 -.00001126  00000-0 -52643-4 0  9998,2 51868  53.2188  10.3410 0001390  67.8905 106.2396 15.08853438 29366,6917.839,95.437,540.6659999999998,538.743,0.0
51868.0,STARLINK-3578,PAYLOAD,2022-09-03 14:00:01,15.08857053,0.000151,53.2186,9.2201,61.2608,31.5794,-0.0031098,-0.00049464,0.0,0 STARLINK-3578,1 51868U 22022S   22246.58334491 -.00049464  00000-0 -31098-2 0  9991,2 51868  53.2186   9.2201 0001510  61.2608  31.5794 15.08857053  1304,6917.828,95.436,540.738,538.649,0.0
51868.0,STARLINK-3578,PAYLOAD,2022-09-03 22:00:00,15.08845938,0.0001534,53.2184,7.7237,58.0547,46.3819,-0.00018319,-3.203e-05,0.0,0 STARLINK-3578,1 51868U 22022S   22246.91667824 -.00003203  00000-0 -18319-3 0  9990,2 51868  53.2184   7.7237 0001534  58.0547  46.3819 15.08845938  1307,6917.861999999999,95.437,540.788,538.6659999999998,0.0
51868.0,STARLINK-3578,PAYLOAD,2022-09-04 14:00:01,15.08839403,0.0001411,53.2184,4.7311,58.9919,68.6854,-0.00064671,-0.00010565,0.0,0 STARLINK-3578,1 51868U 22022S   22247.58335648 -.00010565  00000-0 -64671-3 0  9991,2 51868  53.2184   4.7311 0001411  58.9919  68.6854 15.08839403 29556,6917.882,95.438,540.7230000000002,538.771,0.0
51868.0,STARLINK-3578,PAYLOAD,2022-09-04 20:00:01,15.0883945,0.0001428,53.2181,3.6091,53.7493,352.5684,0.0026181,0.00041625,0.0,0 STARLINK-3578,1 51868U 22022S   22247.83334491  .00041625  00000-0  26181-2 0  9996,2 51868  53.2181   3.6091 0001428  53.7493 352.5684 15.08839450 29596,6917.882,95.438,540.735,538.759,0.0
51868.0,STARLINK-3578,PAYLOAD,2022-09-05 06:00:00,15.08841601,0.0001341999999999,53.2182,1.7368,67.3893,83.4535,0.0013649,0.00021502,0.0,0 STARLINK-3578,1 51868U 22022S   22248.25001157  .00021502  00000-0  13649-2 0  9990,2 51868  53.2182   1.7368 0001342  67.3893  83.4535 15.08841601 29656,6917.875,95.437,540.669,538.812,0.0
51868.0,STARLINK-3578,PAYLOAD,2022-09-05 14:00:01,15.08868901,0.000152,53.2181,0.2421,61.8816,100.5658,-0.0028894,-0.00046015,0.0,0 STARLINK-3578,1 51868U 22022S   22248.58334491 -.00046015  00000-0 -28894-2 0  9992,2 51868  53.2181   0.2421 0001520  61.8816 100.5658 15.08868901  1302,6917.792,95.436,540.7090000000002,538.606,0.0
51868.0,STARLINK-3578,PAYLOAD,2022-09-05 22:00:00,15.08856369,0.0001476999999999,53.2177,358.7453,59.3547,114.7011,-0.0050738,-0.00080175,0.0,0 STARLINK-3578,1 51868U 22022S   22248.91667824 -.00080175  00000-0 -50738-2 0  9995,2 51868  53.2177 358.7453 0001477  59.3547 114.7011 15.08856369 29751,6917.83,95.437,540.717,538.674,0.0
